{"type": "FeatureCollection", "features": [ {"type": "Feature", "properties": {"norad_id": 31843, "name": "FENGYUN 1C DEB", "group": "fengyun-1c-debris", "lat": 57.84087185244897, "lon": -90.84006843121604, "alt_km": 840.2355907344154, "timestamp": "2025-12-09T05:43:21.010487+00:00", "meta": {"OBJECT_NAME": "FENGYUN 1C DEB", "OBJECT_ID": "1999-025CJH", "EPOCH": "2025-12-08T02:27:13.776192", "MEAN_MOTION": 13.33674203, "ECCENTRICITY": 0.06411219, "INCLINATION": 99.2829, "RA_OF_ASC_NODE": 283.1995, "ARG_OF_PERICENTER": 5.4908, "MEAN_ANOMALY": 355.2831, "EPHEMERIS_TYPE": 0, "CLASSIFICATION_TYPE": "U", "NORAD_CAT_ID": 31843, "ELEMENT_SET_NO": 999, "REV_AT_EPOCH": 64634, "BSTAR": 0.008905189, "MEAN_MOTION_DOT": 0.00014262, "MEAN_MOTION_DDOT": 0}, "tle": {"line1": "1 31843U 99025CJH 25342.10224278  .00014262  00000+0  89052-2 0  9996", "line2": "2 31843  99.2829 283.1995 0641121   5.4908 355.2831 13.33674203646340"}}, "geometry": {"type": "Point", "coordinates": [-90.84006843121604, 57.84087185244897]}}, {"type": "Feature", "properties": {"norad_id": 31844, "name": "FENGYUN 1C DEB", "group": "fengyun-1c-debris", "lat": 26.459443384763638, "lon": 156.52975654323893, "alt_km": 891.4332296740513, "timestamp": "2025-12-09T05:43:21.010497+00:00", "meta": {"OBJECT_NAME": "FENGYUN 1C DEB", "OBJECT_ID": "1999-025CJJ", "EPOCH": "2025-12-05T16:26:18.157632", "MEAN_MOTION": 14.19699269, "ECCENTRICITY": 0.01038989, "INCLINATION": 100.302, "RA_OF_ASC_NODE": 327.2073, "ARG_OF_PERICENTER": 10.2041, "MEAN_ANOMALY": 350.1206, "EPHEMERIS_TYPE": 0, "CLASSIFICATION_TYPE": "U", "NORAD_CAT_ID": 31844, "ELEMENT_SET_NO": 999, "REV_AT_EPOCH": 95232, "BSTAR": 0.001318582, "MEAN_MOTION_DOT": 2.887e-05, "MEAN_MOTION_DDOT": 0}, "tle": {"line1": "1 31844U 99025CJJ 25339.68493238  .00002887  00000+0  13186-2 0  9995", "line2": "2 31844 100.3020 327.2073 0103898  10.2041 350.1206 14.19699269952323"}}, "geometry": {"type": "Point", "coordinates": [156.52975654323893, 26.459443384763638]}}, {"type": "Feature", "properties": {"norad_id": 31850, "name": "FENGYUN 1C DEB", "group": "fengyun-1c-debris", "lat": 26.113181671407474, "lon": 23.01384678721964, "alt_km": 454.4934692356401, "timestamp": "2025-12-09T05:43:21.010510+00:00", "meta": {"OBJECT_NAME": "FENGYUN 1C DEB", "OBJECT_ID": "1999-025CJQ", "EPOCH": "2025-12-07T22:15:14.650560", "MEAN_MOTION": 15.31750189, "ECCENTRICITY": 0.00786233, "INCLINATION": 98.5737, "RA_OF_ASC_NODE": 25.7389, "ARG_OF_PERICENTER": 105.9026, "MEAN_ANOMALY": 255.0895, "EPHEMERIS_TYPE": 0, "CLASSIFICATION_TYPE": "U", "NORAD_CAT_ID": 31850, "ELEMENT_SET_NO": 999, "REV_AT_EPOCH": 65755, "BSTAR": 0.003190941, "MEAN_MOTION_DOT": 0.00109005, "MEAN_MOTION_DDOT": 0}, "tle": {"line1": "1 31850U 99025CJQ 25341.92725290  .00109005  00000+0  31909-2 0  9991", "line2": "2 31850  98.5737  25.7389 0078623 105.9026 255.0895 15.31750189657553"}}, "geometry": {"type": "Point", "coordinates": [23.01384678721964, 26.113181671407474]}}, {"type": "Feature", "properties": {"norad_id": 31854, "name": "FENGYUN 1C DEB", "group": "fengyun-1c-debris", "lat": -46.8092379379259, "lon": -3.912425965330356, "alt_km": 939.7027634925962, "timestamp": "2025-12-09T05:43:21.010520+00:00", "meta": {"OBJECT_NAME": "FENGYUN 1C DEB", "OBJECT_ID": "1999-025CJU", "EPOCH": "2025-12-08T17:58:17.105376", "MEAN_MOTION": 14.03066368, "ECCENTRICITY": 0.0072207, "INCLINATION": 98.847, "RA_OF_ASC_NODE": 346.0618, "ARG_OF_PERICENTER": 152.1178, "MEAN_ANOMALY": 208.3887, "EPHEMERIS_TYPE": 0, "CLASSIFICATION_TYPE": "U", "NORAD_CAT_ID": 31854, "ELEMENT_SET_NO": 999, "REV_AT_EPOCH": 69216, "BSTAR": 0.00058529, "MEAN_MOTION_DOT": 8.89e-06, "MEAN_MOTION_DDOT": 0}, "tle": {"line1": "1 31854U 99025CJU 25342.74880909  .00000889  00000+0  58529-3 0  9993", "line2": "2 31854  98.8470 346.0618 0072207 152.1178 208.3887 14.03066368692167"}}, "geometry": {"type": "Point", "coordinates": [-3.912425965330356, -46.8092379379259]}}, {"type": "Feature", "properties": {"norad_id": 31857, "name": "FENGYUN 1C DEB", "group": "fengyun-1c-debris", "lat": -51.67307642450201, "lon": -173.8072174652753, "alt_km": 915.4358993705937, "timestamp": "2025-12-09T05:43:21.010532+00:00", "meta": {"OBJECT_NAME": "FENGYUN 1C DEB", "OBJECT_ID": "1999-025CJX", "EPOCH": "2025-12-08T09:09:37.694592", "MEAN_MOTION": 13.61900061, "ECCENTRICITY": 0.0309157, "INCLINATION": 96.1892, "RA_OF_ASC_NODE": 13.5368, "ARG_OF_PERICENTER": 294.2443, "MEAN_ANOMALY": 62.6695, "EPHEMERIS_TYPE": 0, "CLASSIFICATION_TYPE": "U", "NORAD_CAT_ID": 31857, "ELEMENT_SET_NO": 999, "REV_AT_EPOCH": 61570, "BSTAR": 0.0028041545, "MEAN_MOTION_DOT": 2.946e-05, "MEAN_MOTION_DDOT": 0}, "tle": {"line1": "1 31857U 99025CJX 25342.38168628  .00002946  00000+0  28042-2 0  9995", "line2": "2 31857  96.1892  13.5368 0309157 294.2443  62.6695 13.61900061615700"}}, "geometry": {"type": "Point", "coordinates": [-173.8072174652753, -51.67307642450201]}}, {"type": "Feature", "properties": {"norad_id": 31861, "name": "FENGYUN 1C DEB", "group": "fengyun-1c-debris", "lat": -57.47827148782154, "lon": -24.916412535673388, "alt_km": 816.1124253612479, "timestamp": "2025-12-09T05:43:21.010543+00:00", "meta": {"OBJECT_NAME": "FENGYUN 1C DEB", "OBJECT_ID": "1999-025CKB", "EPOCH": "2025-11-30T18:20:57.621120", "MEAN_MOTION": 13.30200627, "ECCENTRICITY": 0.04966148, "INCLINATION": 102.3423, "RA_OF_ASC_NODE": 165.0071, "ARG_OF_PERICENTER": 230.9853, "MEAN_ANOMALY": 124.6046, "EPHEMERIS_TYPE": 0, "CLASSIFICATION_TYPE": "U", "NORAD_CAT_ID": 31861, "ELEMENT_SET_NO": 999, "REV_AT_EPOCH": 66608, "BSTAR": 0.0034105388, "MEAN_MOTION_DOT": 3.105e-05, "MEAN_MOTION_DDOT": 0}, "tle": {"line1": "1 31861U 99025CKB 25334.76455580  .00003105  00000+0  34105-2 0  9994", "line2": "2 31861 102.3423 165.0071 0496614 230.9853 124.6046 13.30200627666089"}}, "geometry": {"type": "Point", "coordinates": [-24.916412535673388, -57.47827148782154]}}, {"type": "Feature", "properties": {"norad_id": 31877, "name": "FENGYUN 1C DEB", "group": "fengyun-1c-debris", "lat": 63.24976360647674, "lon": 34.57114932004099, "alt_km": 606.5521233987083, "timestamp": "2025-12-09T05:43:21.010553+00:00", "meta": {"OBJECT_NAME": "FENGYUN 1C DEB", "OBJECT_ID": "1999-025CKC", "EPOCH": "2025-12-07T03:50:57.515424", "MEAN_MOTION": 15.0131473, "ECCENTRICITY": 0.01042299, "INCLINATION": 99.003, "RA_OF_ASC_NODE": 50.4979, "ARG_OF_PERICENTER": 297.1709, "MEAN_ANOMALY": 61.8915, "EPHEMERIS_TYPE": 0, "CLASSIFICATION_TYPE": "U", "NORAD_CAT_ID": 31877, "ELEMENT_SET_NO": 999, "REV_AT_EPOCH": 98958, "BSTAR": 0.0012754057, "MEAN_MOTION_DOT": 0.00018395, "MEAN_MOTION_DDOT": 0}, "tle": {"line1": "1 31877U 99025CKC 25341.16038791  .00018395  00000+0  12754-2 0  9997", "line2": "2 31877  99.0030  50.4979 0104229 297.1709  61.8915 15.01314730989580"}}, "geometry": {"type": "Point", "coordinates": [34.57114932004099, 63.24976360647674]}}, {"type": "Feature", "properties": {"norad_id": 31878, "name": "FENGYUN 1C DEB", "group": "fengyun-1c-debris", "lat": 58.88221628861484, "lon": 102.13720477445933, "alt_km": 643.5276949331019, "timestamp": "2025-12-09T05:43:21.010563+00:00", "meta": {"OBJECT_NAME": "FENGYUN 1C DEB", "OBJECT_ID": "1999-025CKD", "EPOCH": "2025-12-03T00:27:41.548032", "MEAN_MOTION": 14.85464766, "ECCENTRICITY": 0.00842743, "INCLINATION": 99.4399, "RA_OF_ASC_NODE": 258.7733, "ARG_OF_PERICENTER": 269.6043, "MEAN_ANOMALY": 89.551, "EPHEMERIS_TYPE": 0, "CLASSIFICATION_TYPE": "U", "NORAD_CAT_ID": 31878, "ELEMENT_SET_NO": 999, "REV_AT_EPOCH": 97949, "BSTAR": 0.0019397439, "MEAN_MOTION_DOT": 0.000178, "MEAN_MOTION_DDOT": 0}, "tle": {"line1": "1 31878U 99025CKD 25337.01923088  .00017800  00000+0  19397-2 0  9999", "line2": "2 31878  99.4399 258.7733 0084274 269.6043  89.5510 14.85464766979499"}}, "geometry": {"type": "Point", "coordinates": [102.13720477445933, 58.88221628861484]}}, {"type": "Feature", "properties": {"norad_id": 31879, "name": "FENGYUN 1C DEB", "group": "fengyun-1c-debris", "lat": 80.23633897455741, "lon": 136.9980537704577, "alt_km": 629.1605768948457, "timestamp": "2025-12-09T05:43:21.010575+00:00", "meta": {"OBJECT_NAME": "FENGYUN 1C DEB", "OBJECT_ID": "1999-025CKE", "EPOCH": "2025-12-08T09:21:21.993696", "MEAN_MOTION": 14.42886508, "ECCENTRICITY": 0.02099894, "INCLINATION": 99.7088, "RA_OF_ASC_NODE": 220.2539, "ARG_OF_PERICENTER": 49.3183, "MEAN_ANOMALY": 312.6042, "EPHEMERIS_TYPE": 0, "CLASSIFICATION_TYPE": "U", "NORAD_CAT_ID": 31879, "ELEMENT_SET_NO": 999, "REV_AT_EPOCH": 63147, "BSTAR": 0.00055672636, "MEAN_MOTION_DOT": 2.363e-05, "MEAN_MOTION_DDOT": 0}, "tle": {"line1": "1 31879U 99025CKE 25342.38983789  .00002363  00000+0  55673-3 0  9996", "line2": "2 31879  99.7088 220.2539 0209989  49.3183 312.6042 14.42886508631474"}}, "geometry": {"type": "Point", "coordinates": [136.9980537704577, 80.23633897455741]}}, {"type": "Feature", "properties": {"norad_id": 31880, "name": "FENGYUN 1C DEB", "group": "fengyun-1c-debris", "lat": -45.45861611574273, "lon": 156.1394277329053, "alt_km": 1020.4311237970078, "timestamp": "2025-12-09T05:43:21.010590+00:00", "meta": {"OBJECT_NAME": "FENGYUN 1C DEB", "OBJECT_ID": "1999-025CKF", "EPOCH": "2025-12-07T17:39:23.204736", "MEAN_MOTION": 13.89389039, "ECCENTRICITY": 0.01282018, "INCLINATION": 100.0287, "RA_OF_ASC_NODE": 144.1639, "ARG_OF_PERICENTER": 164.9392, "MEAN_ANOMALY": 195.5637, "EPHEMERIS_TYPE": 0, "CLASSIFICATION_TYPE": "U", "NORAD_CAT_ID": 31880, "ELEMENT_SET_NO": 999, "REV_AT_EPOCH": 62910, "BSTAR": 0.00081356926, "MEAN_MOTION_DOT": 1.01e-05, "MEAN_MOTION_DDOT": 0}, "tle": {"line1": "1 31880U 99025CKF 25341.73568524  .00001010  00000+0  81357-3 0  9998", "line2": "2 31880 100.0287 144.1639 0128201 164.9392 195.5637 13.89389039629103"}}, "geometry": {"type": "Point", "coordinates": [156.1394277329053, -45.45861611574273]}}]}